CCSDS_OMM_VERS = 2.0
CREATION_DATE  = 
ORIGINATOR     = 

OBJECT_NAME    = SL-14 R/B
OBJECT_ID      = 1991-042B
CENTER_NAME    = EARTH
REF_FRAME      = TEME
TIME_SYSTEM    = UTC
MEAN_ELEMENT_THEORY = SGP/SGP4

EPOCH          = 2026-01-26T14:54:24.714432
MEAN_MOTION    = 14.81788639
ECCENTRICITY   = .0017697
INCLINATION    = 82.4912
RA_OF_ASC_NODE = 259.6406
ARG_OF_PERICENTER = 24.1379
MEAN_ANOMALY   = 336.0660

EPHEMERIS_TYPE = 0
CLASSIFICATION_TYPE = U
NORAD_CAT_ID   = 21423
ELEMENT_SET_NO = 999
REV_AT_EPOCH   = 84684
BSTAR          = .74785E-4
MEAN_MOTION_DOT = .615E-5
MEAN_MOTION_DDOT = 0

CCSDS_OMM_VERS = 2.0
CREATION_DATE  = 
ORIGINATOR     = 

OBJECT_NAME    = ERS-1
OBJECT_ID      = 1991-050A
CENTER_NAME    = EARTH
REF_FRAME      = TEME
TIME_SYSTEM    = UTC
MEAN_ELEMENT_THEORY = SGP/SGP4

EPOCH          = 2026-01-26T12:05:22.996896
MEAN_MOTION    = 14.39410602
ECCENTRICITY   = .0031418
INCLINATION    = 98.7898
RA_OF_ASC_NODE = 43.6780
ARG_OF_PERICENTER = 329.1557
MEAN_ANOMALY   = 30.7783

EPHEMERIS_TYPE = 0
CLASSIFICATION_TYPE = U
NORAD_CAT_ID   = 21574
ELEMENT_SET_NO = 999
REV_AT_EPOCH   = 80966
BSTAR          = .20094235E-3
MEAN_MOTION_DOT = .582E-5
MEAN_MOTION_DDOT = 0

CCSDS_OMM_VERS = 2.0
CREATION_DATE  = 
ORIGINATOR     = 

OBJECT_NAME    = ARIANE 40 R/B
OBJECT_ID      = 1991-050F
CENTER_NAME    = EARTH
REF_FRAME      = TEME
TIME_SYSTEM    = UTC
MEAN_ELEMENT_THEORY = SGP/SGP4

EPOCH          = 2026-01-26T14:03:16.927776
MEAN_MOTION    = 14.42859316
ECCENTRICITY   = .0003029
INCLINATION    = 98.2100
RA_OF_ASC_NODE = 80.3844
ARG_OF_PERICENTER = 179.4519
MEAN_ANOMALY   = 180.6675

EPHEMERIS_TYPE = 0
CLASSIFICATION_TYPE = U
NORAD_CAT_ID   = 21610
ELEMENT_SET_NO = 999
REV_AT_EPOCH   = 81292
BSTAR          = .18372E-3
MEAN_MOTION_DOT = .572E-5
MEAN_MOTION_DDOT = 0

CCSDS_OMM_VERS = 2.0
CREATION_DATE  = 
ORIGINATOR     = 

OBJECT_NAME    = INTERCOSMOS 25
OBJECT_ID      = 1991-086A
CENTER_NAME    = EARTH
REF_FRAME      = TEME
TIME_SYSTEM    = UTC
MEAN_ELEMENT_THEORY = SGP/SGP4

EPOCH          = 2026-01-26T19:08:40.645824
MEAN_MOTION    = 12.11884507
ECCENTRICITY   = .1486223
INCLINATION    = 82.6091
RA_OF_ASC_NODE = 335.3237
ARG_OF_PERICENTER = 207.2060
MEAN_ANOMALY   = 144.2977

EPHEMERIS_TYPE = 0
CLASSIFICATION_TYPE = U
NORAD_CAT_ID   = 21819
ELEMENT_SET_NO = 999
REV_AT_EPOCH   = 49161
BSTAR          = .40673E-3
MEAN_MOTION_DOT = .2063E-4
MEAN_MOTION_DDOT = 0

CCSDS_OMM_VERS = 2.0
CREATION_DATE  = 
ORIGINATOR     = 

OBJECT_NAME    = SL-8 R/B
OBJECT_ID      = 1992-008B
CENTER_NAME    = EARTH
REF_FRAME      = TEME
TIME_SYSTEM    = UTC
MEAN_ELEMENT_THEORY = SGP/SGP4

EPOCH          = 2026-01-26T16:24:09.844128
MEAN_MOTION    = 13.75968442
ECCENTRICITY   = .0033347
INCLINATION    = 82.9285
RA_OF_ASC_NODE = 299.0238
ARG_OF_PERICENTER = 251.6227
MEAN_ANOMALY   = 130.3092

EPHEMERIS_TYPE = 0
CLASSIFICATION_TYPE = U
NORAD_CAT_ID   = 21876
ELEMENT_SET_NO = 999
REV_AT_EPOCH   = 70364
BSTAR          = .82401E-4
MEAN_MOTION_DOT = .95E-6
MEAN_MOTION_DDOT = 0

CCSDS_OMM_VERS = 2.0
CREATION_DATE  = 
ORIGINATOR     = 

OBJECT_NAME    = SL-8 R/B
OBJECT_ID      = 1992-020B
CENTER_NAME    = EARTH
REF_FRAME      = TEME
TIME_SYSTEM    = UTC
MEAN_ELEMENT_THEORY = SGP/SGP4

EPOCH          = 2026-01-26T12:04:38.278848
MEAN_MOTION    = 13.75541934
ECCENTRICITY   = .00300003
INCLINATION    = 82.9308
RA_OF_ASC_NODE = 185.0760
ARG_OF_PERICENTER = 57.1224
MEAN_ANOMALY   = 3.2566

EPHEMERIS_TYPE = 0
CLASSIFICATION_TYPE = U
NORAD_CAT_ID   = 21938
ELEMENT_SET_NO = 999
REV_AT_EPOCH   = 69533
BSTAR          = .18712104E-3
MEAN_MOTION_DOT = .196E-5
MEAN_MOTION_DDOT = 0

CCSDS_OMM_VERS = 2.0
CREATION_DATE  = 
ORIGINATOR     = 

OBJECT_NAME    = USA 81
OBJECT_ID      = 1992-023A
CENTER_NAME    = EARTH
REF_FRAME      = TEME
TIME_SYSTEM    = UTC
MEAN_ELEMENT_THEORY = SGP/SGP4

EPOCH          = 2026-01-26T11:08:52.649664
MEAN_MOTION    = 14.32349969
ECCENTRICITY   = .00022111
INCLINATION    = 85.0114
RA_OF_ASC_NODE = 155.7859
ARG_OF_PERICENTER = 113.4177
MEAN_ANOMALY   = 246.7248

EPHEMERIS_TYPE = 0
CLASSIFICATION_TYPE = U
NORAD_CAT_ID   = 21949
ELEMENT_SET_NO = 999
REV_AT_EPOCH   = 8874
BSTAR          = .1297482E-3
MEAN_MOTION_DOT = .37E-5
MEAN_MOTION_DDOT = 0

CCSDS_OMM_VERS = 2.0
CREATION_DATE  = 
ORIGINATOR     = 

OBJECT_NAME    = COSMOS 2219
OBJECT_ID      = 1992-076A
CENTER_NAME    = EARTH
REF_FRAME      = TEME
TIME_SYSTEM    = UTC
MEAN_ELEMENT_THEORY = SGP/SGP4

EPOCH          = 2026-01-26T12:03:18.763200
MEAN_MOTION    = 14.14080516
ECCENTRICITY   = .00207941
INCLINATION    = 71.0610
RA_OF_ASC_NODE = 106.2646
ARG_OF_PERICENTER = 265.6444
MEAN_ANOMALY   = 94.2303

EPHEMERIS_TYPE = 0
CLASSIFICATION_TYPE = U
NORAD_CAT_ID   = 22219
ELEMENT_SET_NO = 999
REV_AT_EPOCH   = 71241
BSTAR          = -.7737881E-4
MEAN_MOTION_DOT = -.195E-5
MEAN_MOTION_DDOT = 0

CCSDS_OMM_VERS = 2.0
CREATION_DATE  = 
ORIGINATOR     = 

OBJECT_NAME    = SL-16 R/B
OBJECT_ID      = 1992-076B
CENTER_NAME    = EARTH
REF_FRAME      = TEME
TIME_SYSTEM    = UTC
MEAN_ELEMENT_THEORY = SGP/SGP4

EPOCH          = 2026-01-26T14:38:37.728096
MEAN_MOTION    = 14.16850340
ECCENTRICITY   = .0012292
INCLINATION    = 70.9994
RA_OF_ASC_NODE = 277.0150
ARG_OF_PERICENTER = 169.5185
MEAN_ANOMALY   = 206.4114

EPHEMERIS_TYPE = 0
CLASSIFICATION_TYPE = U
NORAD_CAT_ID   = 22220
ELEMENT_SET_NO = 999
REV_AT_EPOCH   = 71587
BSTAR          = -.14784E-4
MEAN_MOTION_DOT = -.78E-6
MEAN_MOTION_DDOT = 0

CCSDS_OMM_VERS = 2.0
CREATION_DATE  = 
ORIGINATOR     = 

OBJECT_NAME    = COSMOS 2221
OBJECT_ID      = 1992-080A
CENTER_NAME    = EARTH
REF_FRAME      = TEME
TIME_SYSTEM    = UTC
MEAN_ELEMENT_THEORY = SGP/SGP4

EPOCH          = 2026-01-26T18:28:02.239968
MEAN_MOTION    = 14.96009673
ECCENTRICITY   = .0013961
INCLINATION    = 82.5063
RA_OF_ASC_NODE = 319.2223
ARG_OF_PERICENTER = 340.6411
MEAN_ANOMALY   = 19.4278

EPHEMERIS_TYPE = 0
CLASSIFICATION_TYPE = U
NORAD_CAT_ID   = 22236
ELEMENT_SET_NO = 999
REV_AT_EPOCH   = 77452
BSTAR          = .31198E-3
MEAN_MOTION_DOT = .353E-4
MEAN_MOTION_DDOT = 0

CCSDS_OMM_VERS = 2.0
CREATION_DATE  = 
ORIGINATOR     = 

OBJECT_NAME    = SL-16 R/B
OBJECT_ID      = 1992-093B
CENTER_NAME    = EARTH
REF_FRAME      = TEME
TIME_SYSTEM    = UTC
MEAN_ELEMENT_THEORY = SGP/SGP4

EPOCH          = 2026-01-26T14:52:49.168992
MEAN_MOTION    = 14.15443639
ECCENTRICITY   = .0004588
INCLINATION    = 71.0220
RA_OF_ASC_NODE = 92.5851
ARG_OF_PERICENTER = 339.1267
MEAN_ANOMALY   = 20.9668

EPHEMERIS_TYPE = 0
CLASSIFICATION_TYPE = U
NORAD_CAT_ID   = 22285
ELEMENT_SET_NO = 999
REV_AT_EPOCH   = 70720
BSTAR          = .17992E-4
MEAN_MOTION_DOT = -.12E-6
MEAN_MOTION_DDOT = 0

CCSDS_OMM_VERS = 2.0
CREATION_DATE  = 
ORIGINATOR     = 

OBJECT_NAME    = COSMOS 2228
OBJECT_ID      = 1992-094A
CENTER_NAME    = EARTH
REF_FRAME      = TEME
TIME_SYSTEM    = UTC
MEAN_ELEMENT_THEORY = SGP/SGP4

EPOCH          = 2026-01-26T19:30:59.901984
MEAN_MOTION    = 14.96988030
ECCENTRICITY   = .0019628
INCLINATION    = 82.5175
RA_OF_ASC_NODE = 277.4065
ARG_OF_PERICENTER = 83.0571
MEAN_ANOMALY   = 277.2883

EPHEMERIS_TYPE = 0
CLASSIFICATION_TYPE = U
NORAD_CAT_ID   = 22286
ELEMENT_SET_NO = 999
REV_AT_EPOCH   = 76979
BSTAR          = .27662E-3
MEAN_MOTION_DOT = .3219E-4
MEAN_MOTION_DDOT = 0

